[{"OBJECT_NAME":"STARLINK-3718","OBJECT_ID":"2022-029AW","EPOCH":"2026-03-09T06:50:28.048704","MEAN_MOTION":15.08838789,"ECCENTRICITY":0.00015372,"INCLINATION":53.2183,"RA_OF_ASC_NODE":70.9375,"ARG_OF_PERICENTER":97.8884,"MEAN_ANOMALY":262.2282,"EPHEMERIS_TYPE":0,"CLASSIFICATION_TYPE":"U","NORAD_CAT_ID":52132,"ELEMENT_SET_NO":999,"REV_AT_EPOCH":22087,"BSTAR":-9.72023e-7,"MEAN_MOTION_DOT":-3.03e-6,"MEAN_MOTION_DDOT":0},{"OBJECT_NAME":"CZ-6A R\/B","OBJECT_ID":"2023-168B","EPOCH":"2026-03-09T21:13:08.722272","MEAN_MOTION":15.16100791,"ECCENTRICITY":0.00607667,"INCLINATION":97.7542,"RA_OF_ASC_NODE":104.7688,"ARG_OF_PERICENTER":339.2379,"MEAN_ANOMALY":20.6386,"EPHEMERIS_TYPE":0,"CLASSIFICATION_TYPE":"U","NORAD_CAT_ID":58200,"ELEMENT_SET_NO":999,"REV_AT_EPOCH":12979,"BSTAR":0.00029693841,"MEAN_MOTION_DOT":5.919e-5,"MEAN_MOTION_DDOT":0}]
